{
    "links": {
        "self": "http://www.neowsapp.com/rest/v1/neo/3776111?api_key=iIulBulltgU6a56xZRHN4H3l9WmuAYTsLGpBGhQ2"
    },
    "id": "3776111",
    "neo_reference_id": "3776111",
    "name": "(2017 MC7)",
    "designation": "2017 MC7",
    "nasa_jpl_url": "http://ssd.jpl.nasa.gov/sbdb.cgi?sstr=3776111",
    "absolute_magnitude_h": 23.0,
    "estimated_diameter": {
        "kilometers": {
            "estimated_diameter_min": 0.0667659413,
            "estimated_diameter_max": 0.1492931834
        },
        "meters": {
            "estimated_diameter_min": 66.7659413495,
            "estimated_diameter_max": 149.2931834393
        },
        "miles": {
            "estimated_diameter_min": 0.0414864197,
            "estimated_diameter_max": 0.0927664547
        },
        "feet": {
            "estimated_diameter_min": 219.0483710172,
            "estimated_diameter_max": 489.807047955
        }
    },
    "is_potentially_hazardous_asteroid": false,
    "close_approach_data": [
        {
            "close_approach_date": "2017-07-16",
            "close_approach_date_full": "2017-Jul-16 10:44",
            "epoch_date_close_approach": 1500201840000,
            "relative_velocity": {
                "kilometers_per_second": "5.8002215709",
                "kilometers_per_hour": "20880.7976551897",
                "miles_per_hour": "12974.515631915"
            },
            "miss_distance": {
                "astronomical": "0.2627974882",
                "lunar": "102.2282229098",
                "kilometers": "39313944.476070134",
                "miles": "24428552.3304064892"
            },
            "orbiting_body": "Earth"
        }
    ],
    "orbital_data": {
        "orbit_id": "4",
        "orbit_determination_date": "2017-08-10 06:20:19",
        "first_observation_date": "2017-06-23",
        "last_observation_date": "2017-07-02",
        "data_arc_in_days": 9,
        "observations_used": 34,
        "orbit_uncertainty": "8",
        "minimum_orbit_intersection": ".208754",
        "jupiter_tisserand_invariant": "3.569",
        "epoch_osculation": "2457930.5",
        "eccentricity": ".4300442519933789",
        "semi_major_axis": "2.147453511478759",
        "inclination": "8.758631982352334",
        "ascending_node_longitude": "110.9042407096382",
        "orbital_period": "1149.434116215752",
        "perihelion_distance": "1.223953472444321",
        "perihelion_argument": "188.2213902894567",
        "aphelion_distance": "3.070953550513197",
        "perihelion_time": "2457965.831509629976",
        "mean_anomaly": "348.9342561810616",
        "mean_motion": ".3131975942955456",
        "equinox": "J2000",
        "orbit_class": {
            "orbit_class_type": "AMO",
            "orbit_class_description": "Near-Earth asteroid orbits similar to that of 1221 Amor",
            "orbit_class_range": "1.017 AU < q (perihelion) < 1.3 AU"
        }
    },
    "is_sentry_object": false
}